[
    {
       "CCSDS_OMM_VERS":"2.0",
       "COMMENT":"GENERATED VIA SPACE-TRACK.ORG API",
       "CREATION_DATE":"2022-05-14T08:36:11",
       "ORIGINATOR":"18 SPCS",
       "OBJECT_NAME":"AXIOM-1 DEB",
       "OBJECT_ID":"2022-037B",
       "CENTER_NAME":"EARTH",
       "REF_FRAME":"TEME",
       "TIME_SYSTEM":"UTC",
       "MEAN_ELEMENT_THEORY":"SGP4",
       "EPOCH":"2022-05-14T08:05:38.857920",
       "MEAN_MOTION":"16.53909487",
       "ECCENTRICITY":"0.00158980",
       "INCLINATION":"51.8498",
       "RA_OF_ASC_NODE":"136.6452",
       "ARG_OF_PERICENTER":"263.2716",
       "MEAN_ANOMALY":"233.3005",
       "EPHEMERIS_TYPE":"0",
       "CLASSIFICATION_TYPE":"U",
       "NORAD_CAT_ID":"52319",
       "ELEMENT_SET_NO":"999",
       "REV_AT_EPOCH":"299",
       "BSTAR":"0.00027279000000",
       "MEAN_MOTION_DOT":"0.50204784",
       "MEAN_MOTION_DDOT":"0.0000127660000",
       "SEMIMAJOR_AXIS":"6507.198",
       "PERIOD":"87.066",
       "APOAPSIS":"139.408",
       "PERIAPSIS":"118.718",
       "OBJECT_TYPE":"DEBRIS",
       "RCS_SIZE":"LARGE",
       "COUNTRY_CODE":"US",
       "LAUNCH_DATE":"2022-04-08",
       "SITE":"AFETR",
       "DECAY_DATE":"2022-05-14",
       "FILE":"3444912",
       "GP_ID":"203493728",
       "TLE_LINE0":"0 AXIOM-1 DEB",
       "TLE_LINE1":"1 52319U 22037B   22134.33725530  .50204784  12766-4  27279-3 0  9990",
       "TLE_LINE2":"2 52319  51.8498 136.6452 0015898 263.2716 233.3005 16.53909487  2990"
    },
    {
       "CCSDS_OMM_VERS":"2.0",
       "COMMENT":"GENERATED VIA SPACE-TRACK.ORG API",
       "CREATION_DATE":"2022-05-18T00:46:12",
       "ORIGINATOR":"18 SPCS",
       "OBJECT_NAME":"COSMOS 2555",
       "OBJECT_ID":"2022-044A",
       "CENTER_NAME":"EARTH",
       "REF_FRAME":"TEME",
       "TIME_SYSTEM":"UTC",
       "MEAN_ELEMENT_THEORY":"SGP4",
       "EPOCH":"2022-05-17T22:17:33.348480",
       "MEAN_MOTION":"16.55086891",
       "ECCENTRICITY":"0.00140980",
       "INCLINATION":"96.4215",
       "RA_OF_ASC_NODE":"227.9004",
       "ARG_OF_PERICENTER":"228.6893",
       "MEAN_ANOMALY":"132.3826",
       "EPHEMERIS_TYPE":"0",
       "CLASSIFICATION_TYPE":"U",
       "NORAD_CAT_ID":"52330",
       "ELEMENT_SET_NO":"999",
       "REV_AT_EPOCH":"289",
       "BSTAR":"0.00019147000000",
       "MEAN_MOTION_DOT":"0.36184717",
       "MEAN_MOTION_DDOT":"0.0000020708000",
       "SEMIMAJOR_AXIS":"6504.111",
       "PERIOD":"87.004",
       "APOAPSIS":"135.146",
       "PERIAPSIS":"116.807",
       "OBJECT_TYPE":"PAYLOAD",
       "RCS_SIZE":"LARGE",
       "COUNTRY_CODE":"CIS",
       "LAUNCH_DATE":"2022-04-29",
       "SITE":"PKMTR",
       "DECAY_DATE":"2022-05-18",
       "FILE":"3450685",
       "GP_ID":"203798118",
       "TLE_LINE0":"0 COSMOS 2555",
       "TLE_LINE1":"1 52330U 22044A   22137.92885820  .36184717  20708-5  19147-3 0  9996",
       "TLE_LINE2":"2 52330  96.4215 227.9004 0014098 228.6893 132.3826 16.55086891  2899"
    },
    {
       "CCSDS_OMM_VERS":"2.0",
       "COMMENT":"GENERATED VIA SPACE-TRACK.ORG API",
       "CREATION_DATE":"2022-05-29T04:36:15",
       "ORIGINATOR":"18 SPCS",
       "OBJECT_NAME":"CZ-11 R\/B",
       "OBJECT_ID":"2022-046F",
       "CENTER_NAME":"EARTH",
       "REF_FRAME":"TEME",
       "TIME_SYSTEM":"UTC",
       "MEAN_ELEMENT_THEORY":"SGP4",
       "EPOCH":"2022-05-29T03:24:08.094240",
       "MEAN_MOTION":"16.48316075",
       "ECCENTRICITY":"0.00474690",
       "INCLINATION":"97.2618",
       "RA_OF_ASC_NODE":"239.0352",
       "ARG_OF_PERICENTER":"240.8405",
       "MEAN_ANOMALY":"119.0301",
       "EPHEMERIS_TYPE":"0",
       "CLASSIFICATION_TYPE":"U",
       "NORAD_CAT_ID":"52393",
       "ELEMENT_SET_NO":"999",
       "REV_AT_EPOCH":"459",
       "BSTAR":"0.00020111000000",
       "MEAN_MOTION_DOT":"0.27185378",
       "MEAN_MOTION_DDOT":"0.0000021451000",
       "SEMIMAJOR_AXIS":"6521.911",
       "PERIOD":"87.362",
       "APOAPSIS":"174.735",
       "PERIAPSIS":"112.817",
       "OBJECT_TYPE":"ROCKET BODY",
       "RCS_SIZE":"LARGE",
       "COUNTRY_CODE":"PRC",
       "LAUNCH_DATE":"2022-04-30",
       "SITE":"YSLA",
       "DECAY_DATE":"2022-05-29",
       "FILE":"3469841",
       "GP_ID":"204807903",
       "TLE_LINE0":"0 CZ-11 R\/B",
       "TLE_LINE1":"1 52393U 22046F   22149.14176035  .27185378  21451-5  20111-3 0  9998",
       "TLE_LINE2":"2 52393  97.2618 239.0352 0047469 240.8405 119.0301 16.48316075  4598"
    },
    {
       "CCSDS_OMM_VERS":"2.0",
       "COMMENT":"GENERATED VIA SPACE-TRACK.ORG API",
       "CREATION_DATE":"2022-05-21T01:36:17",
       "ORIGINATOR":"18 SPCS",
       "OBJECT_NAME":"DRAGON ENDURANCE DEB",
       "OBJECT_ID":"2021-103B",
       "CENTER_NAME":"EARTH",
       "REF_FRAME":"TEME",
       "TIME_SYSTEM":"UTC",
       "MEAN_ELEMENT_THEORY":"SGP4",
       "EPOCH":"2022-05-21T00:58:26.574240",
       "MEAN_MOTION":"16.45147463",
       "ECCENTRICITY":"0.00147970",
       "INCLINATION":"51.2940",
       "RA_OF_ASC_NODE":"103.9567",
       "ARG_OF_PERICENTER":"127.1509",
       "MEAN_ANOMALY":"317.5749",
       "EPHEMERIS_TYPE":"0",
       "CLASSIFICATION_TYPE":"U",
       "NORAD_CAT_ID":"52508",
       "ELEMENT_SET_NO":"999",
       "REV_AT_EPOCH":"245",
       "BSTAR":"0.00010000000000",
       "MEAN_MOTION_DOT":"0.04442942",
       "MEAN_MOTION_DDOT":"0.0000124570000",
       "SEMIMAJOR_AXIS":"6530.282",
       "PERIOD":"87.530",
       "APOAPSIS":"161.810",
       "PERIAPSIS":"142.484",
       "OBJECT_TYPE":"DEBRIS",
       "RCS_SIZE":"LARGE",
       "COUNTRY_CODE":"US",
       "LAUNCH_DATE":"2021-11-11",
       "SITE":"AFETR",
       "DECAY_DATE":"2022-05-21",
       "FILE":"3455691",
       "GP_ID":"204053018",
       "TLE_LINE0":"0 DRAGON ENDURANCE DEB",
       "TLE_LINE1":"1 52508U 21103B   22141.04058535  .04442942  12457-4  10000-3 0  9993",
       "TLE_LINE2":"2 52508  51.2940 103.9567 0014797 127.1509 317.5749 16.45147463  2455"
    },
    {
       "CCSDS_OMM_VERS":"2.0",
       "COMMENT":"GENERATED VIA SPACE-TRACK.ORG API",
       "CREATION_DATE":"2022-05-25T07:36:11",
       "ORIGINATOR":"18 SPCS",
       "OBJECT_NAME":"CZ-7 R\/B",
       "OBJECT_ID":"2022-050D",
       "CENTER_NAME":"EARTH",
       "REF_FRAME":"TEME",
       "TIME_SYSTEM":"UTC",
       "MEAN_ELEMENT_THEORY":"SGP4",
       "EPOCH":"2022-05-25T06:21:01.983456",
       "MEAN_MOTION":"16.48028749",
       "ECCENTRICITY":"0.00188690",
       "INCLINATION":"41.4866",
       "RA_OF_ASC_NODE":"350.6110",
       "ARG_OF_PERICENTER":"294.1822",
       "MEAN_ANOMALY":"66.8963",
       "EPHEMERIS_TYPE":"0",
       "CLASSIFICATION_TYPE":"U",
       "NORAD_CAT_ID":"52512",
       "ELEMENT_SET_NO":"999",
       "REV_AT_EPOCH":"248",
       "BSTAR":"0.00016320000000",
       "MEAN_MOTION_DOT":"0.13236528",
       "MEAN_MOTION_DDOT":"0.0000084317000",
       "SEMIMAJOR_AXIS":"6522.669",
       "PERIOD":"87.377",
       "APOAPSIS":"156.841",
       "PERIAPSIS":"132.226",
       "OBJECT_TYPE":"ROCKET BODY",
       "RCS_SIZE":"LARGE",
       "COUNTRY_CODE":"PRC",
       "LAUNCH_DATE":"2022-05-09",
       "SITE":"WSC",
       "DECAY_DATE":"2022-05-25",
       "FILE":"3463265",
       "GP_ID":"204469554",
       "TLE_LINE0":"0 CZ-7 R\/B",
       "TLE_LINE1":"1 52512U 22050D   22145.26460629  .13236528  84317-5  16320-3 0  9996",
       "TLE_LINE2":"2 52512  41.4866 350.6110 0018869 294.1822  66.8963 16.48028749  2483"
    },
    {
       "CCSDS_OMM_VERS":"2.0",
       "COMMENT":"GENERATED VIA SPACE-TRACK.ORG API",
       "CREATION_DATE":"2022-10-02T18:26:12",
       "ORIGINATOR":"18 SPCS",
       "OBJECT_NAME":"ELECTRON R\/B",
       "OBJECT_ID":"2022-079B",
       "CENTER_NAME":"EARTH",
       "REF_FRAME":"TEME",
       "TIME_SYSTEM":"UTC",
       "MEAN_ELEMENT_THEORY":"SGP4",
       "EPOCH":"2022-10-02T18:09:55.257120",
       "MEAN_MOTION":"16.46646685",
       "ECCENTRICITY":"0.00142440",
       "INCLINATION":"40.0349",
       "RA_OF_ASC_NODE":"156.1594",
       "ARG_OF_PERICENTER":"203.0528",
       "MEAN_ANOMALY":"230.1240",
       "EPHEMERIS_TYPE":"0",
       "CLASSIFICATION_TYPE":"U",
       "NORAD_CAT_ID":"53103",
       "ELEMENT_SET_NO":"999",
       "REV_AT_EPOCH":"214",
       "BSTAR":"0.00040787000000",
       "MEAN_MOTION_DOT":"0.23404416",
       "MEAN_MOTION_DDOT":"0.0000068324000",
       "SEMIMAJOR_AXIS":"6526.318",
       "PERIOD":"87.450",
       "APOAPSIS":"157.479",
       "PERIAPSIS":"138.887",
       "OBJECT_TYPE":"ROCKET BODY",
       "RCS_SIZE":"LARGE",
       "COUNTRY_CODE":"US",
       "LAUNCH_DATE":"2022-07-13",
       "SITE":"RLLC",
       "DECAY_DATE":"2022-10-02",
       "FILE":"3589478",
       "GP_ID":"214020633",
       "TLE_LINE0":"0 ELECTRON R\/B",
       "TLE_LINE1":"1 53103U 22079B   22275.75688955  .23404416  68324-5  40787-3 0  9994",
       "TLE_LINE2":"2 53103  40.0349 156.1594 0014244 203.0528 230.1240 16.46646685  2141"
    }
 ]